NORAD_CAT_ID,OBJECT_NAME,OBJECT_TYPE,EPOCH,MEAN_MOTION,ECCENTRICITY,INCLINATION,RA_OF_ASC_NODE,ARG_OF_PERICENTER,MEAN_ANOMALY,BSTAR,MEAN_MOTION_DOT,MEAN_MOTION_DDOT,TLE_LINE0,TLE_LINE1,TLE_LINE2,SEMIMAJOR_AXIS,PERIOD,APOGEE,PERIGEE,DECAYED
55657.0,STARLINK-5328,PAYLOAD,2024-04-04 20:38:24,14.98331484,0.0003161,69.9986,139.2261,273.1865,86.8933,-1.2695e-05,-2.45e-06,0.0,0 STARLINK-5328,1 55657U 23021AF  24095.86001057 -.00000245  00000-0 -12695-4 0  9993,2 55657  69.9986 139.2261 0003161 273.1865  86.8933 14.98331484 63858,6950.188,96.107,574.25,569.856,0.0
55657.0,STARLINK-5328,PAYLOAD,2024-04-05 12:39:43,14.98349207,0.000321,69.9987,137.5426,272.3971,87.682,0.00025278,2.926e-05,0.0,0 STARLINK-5328,1 55657U 23021AF  24096.52759002  .00002926  00000-0  25278-3 0  9993,2 55657  69.9987 137.5426 0003210 272.3971  87.6820 14.98349207 63651,6950.133,96.106,574.229,569.768,0.0
55657.0,STARLINK-5328,PAYLOAD,2024-04-06 04:41:05,14.98329179,0.0003359,69.9987,135.8588,272.8485,87.229,-4.1594e-06,-1.43e-06,0.0,0 STARLINK-5328,1 55657U 23021AF  24097.19520717 -.00000143  00000-0 -41594-5 0  9998,2 55657  69.9987 135.8588 0003359 272.8485  87.2290 14.98329179 63754,6950.195,96.107,574.395,569.726,0.0
55657.0,STARLINK-5328,PAYLOAD,2024-04-06 09:29:30,14.98325479,0.0003332,69.9986,135.3542,268.8712,91.2065,-4.6316e-05,-6.46e-06,0.0,0 STARLINK-5328,1 55657U 23021AF  24097.39549044 -.00000646  00000-0 -46316-4 0  9998,2 55657  69.9986 135.3542 0003332 268.8712  91.2065 14.98325479 64088,6950.207,96.107,574.388,569.756,0.0
55657.0,STARLINK-5328,PAYLOAD,2024-04-06 19:06:18,14.983274,0.0003314,69.9987,134.3442,268.8505,91.2274,-4.1005e-05,-5.82e-06,0.0,0 STARLINK-5328,1 55657U 23021AF  24097.79604950 -.00000582  00000-0 -41005-4 0  9999,2 55657  69.9987 134.3442 0003314 268.8505  91.2274 14.98327400 64142,6950.201,96.107,574.369,569.763,0.0
55657.0,STARLINK-5328,PAYLOAD,2024-04-07 09:31:30,14.983315,0.0003204,69.9984,132.8287,265.4392,94.6401,-5.0249e-06,-1.53e-06,0.0,0 STARLINK-5328,1 55657U 23021AF  24098.39688566 -.00000153  00000-0 -50249-5 0  9996,2 55657  69.9984 132.8287 0003204 265.4392  94.6401 14.98331500 64239,6950.188,96.107,574.28,569.826,0.0
55657.0,STARLINK-5328,PAYLOAD,2024-04-07 19:08:18,14.98341454,0.0003437,69.9985,131.8188,270.4502,89.6263,-0.00017031,-2.125e-05,0.0,0 STARLINK-5328,1 55657U 23021AF  24098.79744171 -.00002125  00000-0 -17031-3 0  9996,2 55657  69.9985 131.8188 0003437 270.4502  89.6263 14.98341454 63997,6950.157,96.106,574.411,569.634,0.0
55657.0,STARLINK-5328,PAYLOAD,2024-04-08 04:45:07,14.98323467,0.000339,69.9986,130.8092,268.4422,91.6348,4.7265e-05,4.71e-06,0.0,0 STARLINK-5328,1 55657U 23021AF  24099.19800752  .00000471  00000-0  47265-4 0  9992,2 55657  69.9986 130.8092 0003390 268.4422  91.6348 14.98323467 64056,6950.213,96.107,574.434,569.722,0.0
55657.0,STARLINK-5328,PAYLOAD,2024-04-08 09:33:32,14.98323438,0.0003287,69.9991,130.3047,267.6104,92.4679,6.261e-05,6.54e-06,0.0,0 STARLINK-5328,1 55657U 23021AF  24099.39828790  .00000654  00000-0  62610-4 0  9990,2 55657  69.9991 130.3047 0003287 267.6104  92.4679 14.98323438 64380,6950.213,96.107,574.363,569.794,0.0
55657.0,STARLINK-5328,PAYLOAD,2024-04-08 19:10:20,14.9832997,0.0003286,69.9992,129.2946,267.2063,92.8719,-3.0993e-05,-4.63e-06,0.0,0 STARLINK-5328,1 55657U 23021AF  24099.79884714 -.00000463  00000-0 -30993-4 0  9991,2 55657  69.9992 129.2946 0003286 267.2063  92.8719 14.98329970 64448,6950.193,96.107,574.342,569.774,0.0
55657.0,STARLINK-5328,PAYLOAD,2024-04-09 04:47:08,14.98330576,0.0003271,69.9987,128.2847,267.9634,92.115,-3.1344e-05,-4.67e-06,0.0,0 STARLINK-5328,1 55657U 23021AF  24100.19940751 -.00000467  00000-0 -31344-4 0  9997,2 55657  69.9987 128.2847 0003271 267.9634  92.1150 14.98330576 64206,6950.191,96.107,574.33,569.783,0.0
55657.0,STARLINK-5328,PAYLOAD,2024-04-09 09:35:32,14.98339612,0.0003265,69.9987,127.7797,266.1949,93.8837,-0.00018051,-2.247e-05,0.0,0 STARLINK-5328,1 55657U 23021AF  24100.39968518 -.00002247  00000-0 -18051-3 0  9997,2 55657  69.9987 127.7797 0003265 266.1949  93.8837 14.98339612 64533,6950.163,96.106,574.297,569.759,0.0
55657.0,STARLINK-5328,PAYLOAD,2024-04-09 19:12:21,14.98329027,0.0003388,69.9986,126.7696,269.7336,90.3435,3.719e-05,3.51e-06,0.0,0 STARLINK-5328,1 55657U 23021AF  24100.80024677  .00000351  00000-0  37190-4 0  9990,2 55657  69.9986 126.7696 0003388 269.7336  90.3435 14.98329027 64595,6950.196,96.107,574.416,569.706,0.0
55657.0,STARLINK-5328,PAYLOAD,2024-04-10 04:49:09,14.98329599,0.0003432,69.9985,125.7596,267.6333,92.4433,4.8783e-05,4.89e-06,0.0,0 STARLINK-5328,1 55657U 23021AF  24101.20080563  .00000489  00000-0  48783-4 0  9993,2 55657  69.9985 125.7596 0003432 267.6333  92.4433 14.98329599 64355,6950.194,96.107,574.444,569.674,0.0
55657.0,STARLINK-5328,PAYLOAD,2024-04-10 11:13:41,14.98330917,0.0003408,69.9985,125.0864,267.9386,92.1383,3.8596e-05,3.67e-06,0.0,0 STARLINK-5328,1 55657U 23021AF  24101.46784498  .00000367  00000-0  38596-4 0  9995,2 55657  69.9985 125.0864 0003408 267.9386  92.1383 14.98330917 64694,6950.19,96.107,574.424,569.686,0.0
55657.0,STARLINK-5328,PAYLOAD,2024-04-10 19:14:22,14.98328896,0.0003315,69.9991,124.2442,267.9091,92.1689,1.5365e-05,9e-07,0.0,0 STARLINK-5328,1 55657U 23021AF  24101.80164700  .00000090  00000-0  15365-4 0  9993,2 55657  69.9991 124.2442 0003315 267.9091  92.1689 14.98328896 64742,6950.196,96.107,574.365,569.757,0.0
55657.0,STARLINK-5328,PAYLOAD,2024-04-11 04:51:10,14.98328269,0.0003431,69.9983,123.2344,267.5428,92.5338,5.1641e-06,-3.1e-07,0.0,0 STARLINK-5328,1 55657U 23021AF  24102.20220760 -.00000031  00000-0  51641-5 0  9991,2 55657  69.9983 123.2344 0003431 267.5428  92.5338 14.98328269 64505,6950.198,96.107,574.448,569.679,0.0
55657.0,STARLINK-5328,PAYLOAD,2024-04-11 11:15:43,14.98327869,0.0003455,69.9983,122.5614,268.2354,91.841,-2.7151e-06,-1.25e-06,0.0,0 STARLINK-5328,1 55657U 23021AF  24102.46924836 -.00000125  00000-0 -27151-5 0  9998,2 55657  69.9983 122.5614 0003455 268.2354  91.8410 14.98327869 64844,6950.199,96.107,574.466,569.663,0.0
55657.0,STARLINK-5328,PAYLOAD,2024-04-12 04:53:11,14.98332044,0.0003456,69.9982,120.7097,268.1473,91.929,1.0425e-05,3.1e-07,0.0,0 STARLINK-5328,1 55657U 23021AF  24103.20360509  .00000031  00000-0  10425-4 0  9991,2 55657  69.9982 120.7097 0003456 268.1473  91.9290 14.98332044 64657,6950.187,96.107,574.454,569.65,0.0
55657.0,STARLINK-5328,PAYLOAD,2024-04-12 11:17:43,14.9833279,0.0003468,69.9983,120.0364,268.4316,91.6446,2.0501e-05,1.52e-06,0.0,0 STARLINK-5328,1 55657U 23021AF  24103.47064408  .00000152  00000-0  20501-4 0  9999,2 55657  69.9983 120.0364 0003468 268.4316  91.6446 14.98332790 64995,6950.184,96.107,574.46,569.639,0.0
55657.0,STARLINK-5328,PAYLOAD,2024-04-13 04:55:12,14.98327073,0.0003429,69.9983,118.1847,268.447,91.6296,9.2094e-06,1.7e-07,0.0,0 STARLINK-5328,1 55657U 23021AF  24104.20500828  .00000017  00000-0  92094-5 0  9999,2 55657  69.9983 118.1847 0003429 268.4470  91.6296 14.98327073 64808,6950.202,96.107,574.45,569.684,0.0
55657.0,STARLINK-5328,PAYLOAD,2024-04-13 11:19:45,14.98327262,0.0003322,69.9986,117.5115,269.2753,90.8025,-1.294e-06,-1.09e-06,0.0,0 STARLINK-5328,1 55657U 23021AF  24104.47204905 -.00000109  00000-0 -12940-5 0  9991,2 55657  69.9986 117.5115 0003322 269.2753  90.8025 14.98327262 65146,6950.201,96.107,574.375,569.758,0.0
55657.0,STARLINK-5328,PAYLOAD,2024-04-14 04:57:13,14.9833195,0.0003504,69.9982,115.6598,269.8051,90.2707,6.239e-06,-1.9e-07,0.0,0 STARLINK-5328,1 55657U 23021AF  24105.20640570 -.00000019  00000-0  62390-5 0  9998,2 55657  69.9982 115.6598 0003504 269.8051  90.2707 14.98331950 64953,6950.187,96.107,574.487,569.617,0.0
55657.0,STARLINK-5328,PAYLOAD,2024-04-14 09:45:37,14.98332648,0.0003191,69.9988,115.1559,259.6537,100.4263,2.496e-05,2.05e-06,0.0,0 STARLINK-5328,1 55657U 23021AF  24105.40668421  .00000205  00000-0  24960-4 0  9991,2 55657  69.9988 115.1559 0003191 259.6537 100.4263 14.98332648 65282,6950.185,96.107,574.268,569.832,0.0
55657.0,STARLINK-5328,PAYLOAD,2024-04-15 04:59:14,14.98330416,0.0003392,69.9986,113.1351,269.266,90.811,5.3407e-05,5.44e-06,0.0,0 STARLINK-5328,1 55657U 23021AF  24106.20780409  .00000544  00000-0  53407-4 0  9995,2 55657  69.9986 113.1351 0003392 269.2660  90.8110 14.98330416 65100,6950.192,96.107,574.414,569.699,0.0
55657.0,STARLINK-5328,PAYLOAD,2024-04-15 09:47:38,14.98330294,0.0003381,69.9987,112.6302,269.1212,90.956,5.1138e-05,5.17e-06,0.0,0 STARLINK-5328,1 55657U 23021AF  24106.40808414  .00000517  00000-0  51138-4 0  9993,2 55657  69.9987 112.6302 0003381 269.1212  90.9560 14.98330294 65431,6950.192,96.107,574.407,569.707,0.0
55657.0,STARLINK-5328,PAYLOAD,2024-04-16 05:01:15,14.98331595,0.0003391,69.9983,110.6097,267.7579,92.3192,-9.2462e-06,-2.03e-06,0.0,0 STARLINK-5328,1 55657U 23021AF  24107.20920427 -.00000203  00000-0 -92462-5 0  9991,2 55657  69.9983 110.6097 0003391 267.7579  92.3192 14.98331595 65259,6950.188,96.107,574.41,569.696,0.0
55657.0,STARLINK-5328,PAYLOAD,2024-04-16 09:49:39,14.98333561,0.0003368,69.9984,110.1047,267.8027,92.2747,1.4932e-05,8.5e-07,0.0,0 STARLINK-5328,1 55657U 23021AF  24107.40948199  .00000085  00000-0  14932-4 0  9990,2 55657  69.9984 110.1047 0003368 267.8027  92.2747 14.98333561 65589,6950.182,96.107,574.388,569.706,0.0
55657.0,STARLINK-5328,PAYLOAD,2024-04-17 05:03:16,14.98331129,0.0003368,69.9983,108.0847,267.6446,92.4327,9.1592e-06,1.6e-07,0.0,0 STARLINK-5328,1 55657U 23021AF  24108.21060283  .00000016  00000-0  91592-5 0  9991,2 55657  69.9983 108.0847 0003368 267.6446  92.4327 14.98331129 65400,6950.189,96.107,574.395,569.714,0.0
55657.0,STARLINK-5328,PAYLOAD,2024-04-17 09:51:40,14.98333683,0.0003353,69.9983,107.5797,267.6476,92.4299,3.7718e-05,3.57e-06,0.0,0 STARLINK-5328,1 55657U 23021AF  24108.41088014  .00000357  00000-0  37718-4 0  9992,2 55657  69.9983 107.5797 0003353 267.6476  92.4299 14.98333683 65736,6950.182,96.107,574.377,569.716,0.0
